CCSDS_OMM_VERS,COMMENT,CREATION_DATE,ORIGINATOR,OBJECT_NAME,OBJECT_ID,CENTER_NAME,REF_FRAME,TIME_SYSTEM,MEAN_ELEMENT_THEORY,EPOCH,MEAN_MOTION,ECCENTRICITY,INCLINATION,RA_OF_ASC_NODE,ARG_OF_PERICENTER,MEAN_ANOMALY,EPHEMERIS_TYPE,CLASSIFICATION_TYPE,NORAD_CAT_ID,ELEMENT_SET_NO,REV_AT_EPOCH,BSTAR,MEAN_MOTION_DOT,MEAN_MOTION_DDOT,SEMIMAJOR_AXIS,PERIOD,APOAPSIS,PERIAPSIS,OBJECT_TYPE,RCS_SIZE,COUNTRY_CODE,LAUNCH_DATE,SITE,DECAY_DATE,FILE,GP_ID,TLE_LINE0,TLE_LINE1,TLE_LINE2
2.0,GENERATED VIA SPACE-TRACK.ORG API,2022-08-20T09:16:12,18 SPCS,STARLINK-3260,2021-125BB,EARTH,TEME,UTC,SGP4,2022-08-20T08:00:01.000224,15.08826069,0.0001773,53.2166,273.1715,49.0892,172.9503,0,U,50205,999,4083,-0.0013216,-0.00021252,0.0,6917.923,95.438,541.015,538.561,PAYLOAD,LARGE,US,2021-12-18,AFWTR,,3541001,210556538,0 STARLINK-3260,1 50205U 21125BB  22232.33334491 -.00021252  00000-0 -13216-2 0  9993,2 50205  53.2166 273.1715 0001773  49.0892 172.9503 15.08826069 40830
2.0,GENERATED VIA SPACE-TRACK.ORG API,2022-08-20T09:16:12,18 SPCS,STARLINK-3931,2022-051R,EARTH,TEME,UTC,SGP4,2022-08-20T08:00:01.000224,15.08806932,0.000155,53.2161,193.1652,64.4957,222.7999,0,U,52548,999,1566,0.0030358,0.00048314,0.0,6917.981,95.44,540.919,538.774,PAYLOAD,LARGE,US,2022-05-13,AFWTR,,3541005,210556450,0 STARLINK-3931,1 52548U 22051R   22232.33334491  .00048314  00000-0  30358-2 0  9996,2 52548  53.2161 193.1652 0001550  64.4957 222.7999 15.08806932 15667
2.0,GENERATED VIA SPACE-TRACK.ORG API,2022-08-20T09:26:12,18 SPCS,STARLINK-3611,2022-017M,EARTH,TEME,UTC,SGP4,2022-08-20T08:00:01.000224,15.08793636,0.0001567,53.2187,43.1707,56.8,255.4501,0,U,51779,999,2820,0.0031254,0.00049741,0.0,6918.022,95.44,540.971,538.803,PAYLOAD,LARGE,US,2022-02-25,AFWTR,,3541015,210556687,0 STARLINK-3611,1 51779U 22017M   22232.33334491  .00049741  00000-0  31254-2 0  9994,2 51779  53.2187  43.1707 0001567  56.8000 255.4501 15.08793636 28209
2.0,GENERATED VIA SPACE-TRACK.ORG API,2022-08-20T09:26:12,18 SPCS,STARLINK-3615,2022-017L,EARTH,TEME,UTC,SGP4,2022-08-20T08:00:01.000224,15.08808014,0.0001404,53.2161,33.173,72.8095,109.2267,0,U,51778,999,2835,0.0027665,0.00043977,0.0,6917.978,95.44,540.814,538.872,PAYLOAD,LARGE,US,2022-02-25,AFWTR,,3541015,210556693,0 STARLINK-3615,1 51778U 22017L   22232.33334491  .00043977  00000-0  27665-2 0  9999,2 51778  53.2161  33.1730 0001404  72.8095 109.2267 15.08808014 28355
2.0,GENERATED VIA SPACE-TRACK.ORG API,2022-08-20T09:16:12,18 SPCS,STARLINK-3944,2022-051M,EARTH,TEME,UTC,SGP4,2022-08-20T08:00:01.000224,15.08809369,0.0002415,53.2161,198.191,45.3884,314.3615,0,U,52544,999,1558,0.0027157,0.00043162,0.0,6917.974,95.439,541.51,538.168,PAYLOAD,LARGE,US,2022-05-13,AFWTR,,3541005,210556596,0 STARLINK-3944,1 52544U 22051M   22232.33334491  .00043162  00000-0  27157-2 0  9991,2 52544  53.2161 198.1910 0002415  45.3884 314.3615 15.08809369 15584
2.0,GENERATED VIA SPACE-TRACK.ORG API,2022-08-20T08:36:13,18 SPCS,STARLINK-3776,2022-041AD,EARTH,TEME,UTC,SGP4,2022-08-20T08:00:01.000224,15.08808777,0.0001602,53.2147,163.1754,53.1948,19.0994,0,U,52288,999,1987,0.0014427,0.00022728,0.0,6917.976,95.44,540.949,538.733,PAYLOAD,LARGE,US,2022-04-21,AFETR,,3540945,210555235,0 STARLINK-3776,1 52288U 22041AD  22232.33334491  .00022728  00000-0  14427-2 0  9996,2 52288  53.2147 163.1754 0001602  53.1948  19.0994 15.08808777 19873
2.0,GENERATED VIA SPACE-TRACK.ORG API,2022-08-20T09:16:12,18 SPCS,STARLINK-3940,2022-051H,EARTH,TEME,UTC,SGP4,2022-08-20T08:00:01.000224,15.08822424,0.0002445,53.216,193.1845,47.5897,99.6861,0,U,52540,999,1565,0.0013019,0.00020483,0.0,6917.934,95.439,541.491,538.108,PAYLOAD,LARGE,US,2022-05-13,AFWTR,,3541004,210556429,0 STARLINK-3940,1 52540U 22051H   22232.33334491  .00020483  00000-0  13019-2 0  9990,2 52540  53.2160 193.1845 0002445  47.5897  99.6861 15.08822424 15653
2.0,GENERATED VIA SPACE-TRACK.ORG API,2022-08-20T09:16:12,18 SPCS,STARLINK-3622,2022-017A,EARTH,TEME,UTC,SGP4,2022-08-20T08:00:01.000224,15.08806079,0.0001331,53.2176,43.1708,71.9336,60.2961,0,U,51768,999,2819,0.0023388,0.00037096,0.0,6917.984,95.44,540.77,538.928,PAYLOAD,LARGE,US,2022-02-25,AFWTR,,3541007,210556485,0 STARLINK-3622,1 51768U 22017A   22232.33334491  .00037096  00000-0  23388-2 0  9991,2 51768  53.2176  43.1708 0001331  71.9336  60.2961 15.08806079 28191
2.0,GENERATED VIA SPACE-TRACK.ORG API,2022-08-20T09:16:12,18 SPCS,STARLINK-3964,2022-051D,EARTH,TEME,UTC,SGP4,2022-08-20T08:00:01.000224,15.08797235,0.0002307,53.2161,193.1881,49.4939,337.774,0,U,52536,999,1565,0.0028051,0.00044586,0.0,6918.011,95.44,541.472,538.28,PAYLOAD,LARGE,US,2022-05-13,AFWTR,,3541009,210556608,0 STARLINK-3964,1 52536U 22051D   22232.33334491  .00044586  00000-0  28051-2 0  9997,2 52536  53.2161 193.1881 0002307  49.4939 337.7740 15.08797235 15657
2.0,GENERATED VIA SPACE-TRACK.ORG API,2022-08-20T09:16:12,18 SPCS,STARLINK-3958,2022-051C,EARTH,TEME,UTC,SGP4,2022-08-20T08:00:01.000224,15.08801333,0.0002526,53.2154,193.1884,45.5438,321.7146,0,U,52535,999,1565,0.0027952,0.00044432,0.0,6917.999,95.44,541.611,538.116,PAYLOAD,LARGE,US,2022-05-13,AFWTR,,3541004,210556577,0 STARLINK-3958,1 52535U 22051C   22232.33334491  .00044432  00000-0  27952-2 0  9995,2 52535  53.2154 193.1884 0002526  45.5438 321.7146 15.08801333 15653
2.0,GENERATED VIA SPACE-TRACK.ORG API,2022-08-20T09:06:13,18 SPCS,STARLINK-3513,2022-016AU,EARTH,TEME,UTC,SGP4,2022-08-20T08:00:01.000224,15.0879328,0.0001573,53.2203,13.1736,58.9294,198.332,0,U,51756,999,2891,0.0026219,0.00041633,0.0,6918.023,95.441,540.976,538.8,PAYLOAD,LARGE,US,2022-02-21,AFETR,,3540994,210556110,0 STARLINK-3513,1 51756U 22016AU  22232.33334491  .00041633  00000-0  26219-2 0  9995,2 51756  53.2203  13.1736 0001573  58.9294 198.3320 15.08793280 28914
2.0,GENERATED VIA SPACE-TRACK.ORG API,2022-08-20T09:06:13,18 SPCS,STARLINK-3460,2022-016AT,EARTH,TEME,UTC,SGP4,2022-08-20T08:00:01.000224,15.08804913,0.0001424,53.2171,13.1829,59.9667,37.2913,0,U,51755,999,2896,0.0026378,0.00041902,0.0,6917.988,95.44,540.838,538.868,PAYLOAD,LARGE,US,2022-02-21,AFETR,,3540994,210556104,0 STARLINK-3460,1 51755U 22016AT  22232.33334491  .00041902  00000-0  26378-2 0  9999,2 51755  53.2171  13.1829 0001424  59.9667  37.2913 15.08804913 28960
2.0,GENERATED VIA SPACE-TRACK.ORG API,2022-08-20T09:06:13,18 SPCS,STARLINK-3457,2022-016AS,EARTH,TEME,UTC,SGP4,2022-08-20T08:00:01.000224,15.08792554,0.0001679,53.2167,13.1793,66.0829,45.9776,0,U,51754,999,2896,0.0025957,0.00041211,0.0,6918.025,95.441,541.052,538.729,PAYLOAD,LARGE,US,2022-02-21,AFETR,,3540994,210556335,0 STARLINK-3457,1 51754U 22016AS  22232.33334491  .00041211  00000-0  25957-2 0  9993,2 51754  53.2167  13.1793 0001679  66.0829  45.9776 15.08792554 28965
2.0,GENERATED VIA SPACE-TRACK.ORG API,2022-08-20T09:06:13,18 SPCS,STARLINK-3507,2022-016AR,EARTH,TEME,UTC,SGP4,2022-08-20T08:00:01.000224,15.08791462,0.0001412,53.2173,13.1838,62.5939,334.68,0,U,51753,999,2891,0.00228,0.00036136,0.0,6918.029,95.441,540.871,538.917,PAYLOAD,LARGE,US,2022-02-21,AFETR,,3540994,210556337,0 STARLINK-3507,1 51753U 22016AR  22232.33334491  .00036136  00000-0  22800-2 0  9996,2 51753  53.2173  13.1838 0001412  62.5939 334.6800 15.08791462 28917
2.0,GENERATED VIA SPACE-TRACK.ORG API,2022-08-20T09:06:13,18 SPCS,STARLINK-3506,2022-016AP,EARTH,TEME,UTC,SGP4,2022-08-20T08:00:01.000224,15.08799024,0.0001579,53.2179,13.1842,58.9344,298.321,0,U,51751,999,2895,0.0029417,0.00046788,0.0,6918.006,95.44,540.963,538.778,PAYLOAD,LARGE,US,2022-02-21,AFETR,,3540994,210556329,0 STARLINK-3506,1 51751U 22016AP  22232.33334491  .00046788  00000-0  29417-2 0  9999,2 51751  53.2179  13.1842 0001579  58.9344 298.3210 15.08799024 28956
2.0,GENERATED VIA SPACE-TRACK.ORG API,2022-08-20T09:06:13,18 SPCS,STARLINK-3505,2022-016AN,EARTH,TEME,UTC,SGP4,2022-08-20T08:00:01.000224,15.08808789,0.0001342,53.218,13.1887,58.1514,359.1384,0,U,51750,999,2896,0.0028747,0.00045721,0.0,6917.976,95.44,540.769,538.912,PAYLOAD,LARGE,US,2022-02-21,AFETR,,3540990,210556324,0 STARLINK-3505,1 51750U 22016AN  22232.33334491  .00045721  00000-0  28747-2 0  9999,2 51750  53.2180  13.1887 0001342  58.1514 359.1384 15.08808789 28963
2.0,GENERATED VIA SPACE-TRACK.ORG API,2022-08-20T08:36:13,18 SPCS,STARLINK-3740,2022-041E,EARTH,TEME,UTC,SGP4,2022-08-20T08:00:01.000224,15.08825927,0.0002376,53.2158,173.1716,55.465,341.8085,0,U,52265,999,1973,0.00055791,8.599e-05,0.0,6917.923,95.438,541.432,538.145,PAYLOAD,LARGE,US,2022-04-21,AFETR,,3540945,210555414,0 STARLINK-3740,1 52265U 22041E   22232.33334491  .00008599  00000-0  55791-3 0  9991,2 52265  53.2158 173.1716 0002376  55.4650 341.8085 15.08825927 19731
2.0,GENERATED VIA SPACE-TRACK.ORG API,2022-08-20T09:06:13,18 SPCS,STARLINK-3446,2022-016AK,EARTH,TEME,UTC,SGP4,2022-08-20T08:00:01.000224,15.08807307,0.0001432,53.22,23.1725,59.7002,62.561,0,U,51747,999,2884,0.0029206,0.00046458,0.0,6917.98,95.44,540.836,538.855,PAYLOAD,LARGE,US,2022-02-21,AFETR,,3540990,210556093,0 STARLINK-3446,1 51747U 22016AK  22232.33334491  .00046458  00000-0  29206-2 0  9994,2 51747  53.2200  23.1725 0001432  59.7002  62.5610 15.08807307 28842
2.0,GENERATED VIA SPACE-TRACK.ORG API,2022-08-20T09:06:13,18 SPCS,STARLINK-3502,2022-016AJ,EARTH,TEME,UTC,SGP4,2022-08-20T08:00:01.000224,15.08813864,0.0001302,53.2173,13.1799,64.5215,272.743,0,U,51746,999,2895,0.0030037,0.00047806,0.0,6917.96,95.439,540.726,538.925,PAYLOAD,LARGE,US,2022-02-21,AFETR,,3540990,210556320,0 STARLINK-3502,1 51746U 22016AJ  22232.33334491  .00047806  00000-0  30037-2 0  9995,2 51746  53.2173  13.1799 0001302  64.5215 272.7430 15.08813864 28958
2.0,GENERATED VIA SPACE-TRACK.ORG API,2022-08-20T09:06:13,18 SPCS,STARLINK-3515,2022-016AA,EARTH,TEME,UTC,SGP4,2022-08-20T08:00:01.000224,15.08805943,0.0001423,53.2187,23.1744,63.4725,338.7972,0,U,51738,999,2881,0.0032226,0.00051325,0.0,6917.984,95.44,540.834,538.865,PAYLOAD,LARGE,US,2022-02-21,AFETR,,3540990,210556326,0 STARLINK-3515,1 51738U 22016AA  22232.33334491  .00051325  00000-0  32226-2 0  9999,2 51738  53.2187  23.1744 0001423  63.4725 338.7972 15.08805943 28811
